[{"OBJECT_NAME":"TYVAK-0172","OBJECT_ID":"2020-059C","EPOCH":"2026-03-09T15:00:33.219936","MEAN_MOTION":15.70916107,"ECCENTRICITY":0.0003543,"INCLINATION":97.7214,"RA_OF_ASC_NODE":311.0561,"ARG_OF_PERICENTER":67.1132,"MEAN_ANOMALY":293.0503,"EPHEMERIS_TYPE":0,"CLASSIFICATION_TYPE":"U","NORAD_CAT_ID":46267,"ELEMENT_SET_NO":999,"REV_AT_EPOCH":30311,"BSTAR":0.0021652,"MEAN_MOTION_DOT":0.00278441,"MEAN_MOTION_DDOT":0},{"OBJECT_NAME":"STARLINK-11200 [DTC]","OBJECT_ID":"2024-133K","EPOCH":"2026-03-09T09:45:42.973632","MEAN_MOTION":15.69709557,"ECCENTRICITY":9.908e-5,"INCLINATION":53.1569,"RA_OF_ASC_NODE":147.3233,"ARG_OF_PERICENTER":83.6836,"MEAN_ANOMALY":276.4295,"EPHEMERIS_TYPE":0,"CLASSIFICATION_TYPE":"U","NORAD_CAT_ID":60310,"ELEMENT_SET_NO":999,"REV_AT_EPOCH":9369,"BSTAR":9.6698959e-5,"MEAN_MOTION_DOT":0.00011142,"MEAN_MOTION_DDOT":0}]
